{"type": "FeatureCollection", "features": [ {"type": "Feature", "properties": {"norad_id": 66530, "name": "STARLINK-35961", "group": "last-30-days", "lat": 0.5951327444499228, "lon": 78.51209972726299, "alt_km": 398.4483265050785, "timestamp": "2025-12-08T15:42:48.536562+00:00", "meta": {"OBJECT_NAME": "STARLINK-35961", "OBJECT_ID": "2025-265Q", "EPOCH": "2025-12-08T06:00:02.999808", "MEAN_MOTION": 15.57918814, "ECCENTRICITY": 0.00010919, "INCLINATION": 43.0005, "RA_OF_ASC_NODE": 80.2641, "ARG_OF_PERICENTER": 261.5242, "MEAN_ANOMALY": 348.2475, "EPHEMERIS_TYPE": 0, "CLASSIFICATION_TYPE": "U", "NORAD_CAT_ID": 66530, "ELEMENT_SET_NO": 999, "REV_AT_EPOCH": 427, "BSTAR": -0.02922033, "MEAN_MOTION_DOT": -0.01970821, "MEAN_MOTION_DDOT": 0}, "tle": {"line1": "1 66530U 25265Q   25342.25003472 -.01970821  00000+0 -29220-1 0  9994", "line2": "2 66530  43.0005  80.2641 0001091 261.5242 348.2475 15.57918814  4273"}}, "geometry": {"type": "Point", "coordinates": [78.51209972726299, 0.5951327444499228]}}, {"type": "Feature", "properties": {"norad_id": 66531, "name": "STARLINK-35960", "group": "last-30-days", "lat": 1.9025950752196685, "lon": 79.91002230060886, "alt_km": 398.3093492203452, "timestamp": "2025-12-08T15:42:48.536572+00:00", "meta": {"OBJECT_NAME": "STARLINK-35960", "OBJECT_ID": "2025-265R", "EPOCH": "2025-12-08T06:00:02.999808", "MEAN_MOTION": 15.57930955, "ECCENTRICITY": 0.00014136, "INCLINATION": 43.0004, "RA_OF_ASC_NODE": 80.2578, "ARG_OF_PERICENTER": 264.8716, "MEAN_ANOMALY": 346.8158, "EPHEMERIS_TYPE": 0, "CLASSIFICATION_TYPE": "U", "NORAD_CAT_ID": 66531, "ELEMENT_SET_NO": 999, "REV_AT_EPOCH": 427, "BSTAR": -0.029650744, "MEAN_MOTION_DOT": -0.0199726, "MEAN_MOTION_DDOT": 0}, "tle": {"line1": "1 66531U 25265R   25342.25003472 -.01997260  00000+0 -29651-1 0  9999", "line2": "2 66531  43.0004  80.2578 0001413 264.8716 346.8158 15.57930955  4274"}}, "geometry": {"type": "Point", "coordinates": [79.91002230060886, 1.9025950752196685]}}, {"type": "Feature", "properties": {"norad_id": 66532, "name": "STARLINK-35914", "group": "last-30-days", "lat": 3.2074743243648958, "lon": 81.31093974413199, "alt_km": 398.2083716283378, "timestamp": "2025-12-08T15:42:48.536584+00:00", "meta": {"OBJECT_NAME": "STARLINK-35914", "OBJECT_ID": "2025-265S", "EPOCH": "2025-12-08T06:00:02.999808", "MEAN_MOTION": 15.57922786, "ECCENTRICITY": 0.00011839, "INCLINATION": 43.0001, "RA_OF_ASC_NODE": 80.2539, "ARG_OF_PERICENTER": 260.546, "MEAN_ANOMALY": 353.0598, "EPHEMERIS_TYPE": 0, "CLASSIFICATION_TYPE": "U", "NORAD_CAT_ID": 66532, "ELEMENT_SET_NO": 999, "REV_AT_EPOCH": 427, "BSTAR": -0.029374249, "MEAN_MOTION_DOT": -0.01980243, "MEAN_MOTION_DDOT": 0}, "tle": {"line1": "1 66532U 25265S   25342.25003472 -.01980243  00000+0 -29374-1 0  9995", "line2": "2 66532  43.0001  80.2539 0001183 260.5460 353.0598 15.57922786  4273"}}, "geometry": {"type": "Point", "coordinates": [81.31093974413199, 3.2074743243648958]}}, {"type": "Feature", "properties": {"norad_id": 66533, "name": "STARLINK-35707", "group": "last-30-days", "lat": 4.510676577781566, "lon": 82.71576689957634, "alt_km": 397.98192647509495, "timestamp": "2025-12-08T15:42:48.536596+00:00", "meta": {"OBJECT_NAME": "STARLINK-35707", "OBJECT_ID": "2025-265T", "EPOCH": "2025-12-08T06:00:02.999808", "MEAN_MOTION": 15.57917508, "ECCENTRICITY": 0.0001159, "INCLINATION": 42.9997, "RA_OF_ASC_NODE": 80.25, "ARG_OF_PERICENTER": 263.7979, "MEAN_ANOMALY": 351.7259, "EPHEMERIS_TYPE": 0, "CLASSIFICATION_TYPE": "U", "NORAD_CAT_ID": 66533, "ELEMENT_SET_NO": 999, "REV_AT_EPOCH": 427, "BSTAR": -0.029239167, "MEAN_MOTION_DOT": -0.01971896, "MEAN_MOTION_DDOT": 0}, "tle": {"line1": "1 66533U 25265T   25342.25003472 -.01971896  00000+0 -29239-1 0  9990", "line2": "2 66533  42.9997  80.2500 0001159 263.7979 351.7259 15.57917508  4272"}}, "geometry": {"type": "Point", "coordinates": [82.71576689957634, 4.510676577781566]}}, {"type": "Feature", "properties": {"norad_id": 66534, "name": "STARLINK-35976", "group": "last-30-days", "lat": 5.812477852848804, "lon": 84.126093477687, "alt_km": 397.8378560404708, "timestamp": "2025-12-08T15:42:48.536607+00:00", "meta": {"OBJECT_NAME": "STARLINK-35976", "OBJECT_ID": "2025-265U", "EPOCH": "2025-12-08T06:00:02.999808", "MEAN_MOTION": 15.57920014, "ECCENTRICITY": 0.00011265, "INCLINATION": 43.0006, "RA_OF_ASC_NODE": 80.2453, "ARG_OF_PERICENTER": 263.0477, "MEAN_ANOMALY": 354.3924, "EPHEMERIS_TYPE": 0, "CLASSIFICATION_TYPE": "U", "NORAD_CAT_ID": 66534, "ELEMENT_SET_NO": 999, "REV_AT_EPOCH": 427, "BSTAR": -0.029268532, "MEAN_MOTION_DOT": -0.01973773, "MEAN_MOTION_DDOT": 0}, "tle": {"line1": "1 66534U 25265U   25342.25003472 -.01973773  00000+0 -29269-1 0  9990", "line2": "2 66534  43.0006  80.2453 0001126 263.0477 354.3924 15.57920014  4277"}}, "geometry": {"type": "Point", "coordinates": [84.126093477687, 5.812477852848804]}}, {"type": "Feature", "properties": {"norad_id": 66535, "name": "STARLINK-35514", "group": "last-30-days", "lat": 7.109956291578886, "lon": 85.54242638915859, "alt_km": 397.7786581210148, "timestamp": "2025-12-08T15:42:48.536619+00:00", "meta": {"OBJECT_NAME": "STARLINK-35514", "OBJECT_ID": "2025-265V", "EPOCH": "2025-12-08T06:00:02.999808", "MEAN_MOTION": 15.57920416, "ECCENTRICITY": 0.00011579, "INCLINATION": 43.0002, "RA_OF_ASC_NODE": 80.2407, "ARG_OF_PERICENTER": 258.7951, "MEAN_ANOMALY": 0.5622, "EPHEMERIS_TYPE": 0, "CLASSIFICATION_TYPE": "U", "NORAD_CAT_ID": 66535, "ELEMENT_SET_NO": 999, "REV_AT_EPOCH": 427, "BSTAR": -0.029288792, "MEAN_MOTION_DOT": -0.0197502, "MEAN_MOTION_DDOT": 0}, "tle": {"line1": "1 66535U 25265V   25342.25003472 -.01975020  00000+0 -29289-1 0  9990", "line2": "2 66535  43.0002  80.2407 0001157 258.7951   0.5622 15.57920416  4276"}}, "geometry": {"type": "Point", "coordinates": [85.54242638915859, 7.109956291578886]}}, {"type": "Feature", "properties": {"norad_id": 66536, "name": "STARLINK-35640", "group": "last-30-days", "lat": 8.403032574929574, "lon": 86.9654838646102, "alt_km": 397.58203771273384, "timestamp": "2025-12-08T15:42:48.536631+00:00", "meta": {"OBJECT_NAME": "STARLINK-35640", "OBJECT_ID": "2025-265W", "EPOCH": "2025-12-08T06:00:02.999808", "MEAN_MOTION": 15.5793345, "ECCENTRICITY": 0.00013074, "INCLINATION": 43.0005, "RA_OF_ASC_NODE": 80.235, "ARG_OF_PERICENTER": 264.2592, "MEAN_ANOMALY": 357.0125, "EPHEMERIS_TYPE": 0, "CLASSIFICATION_TYPE": "U", "NORAD_CAT_ID": 66536, "ELEMENT_SET_NO": 999, "REV_AT_EPOCH": 425, "BSTAR": -0.029711655, "MEAN_MOTION_DOT": -0.02000939, "MEAN_MOTION_DDOT": 0}, "tle": {"line1": "1 66536U 25265W   25342.25003472 -.02000939  00000+0 -29712-1 0  9991", "line2": "2 66536  43.0005  80.2350 0001307 264.2592 357.0125 15.57933450  4255"}}, "geometry": {"type": "Point", "coordinates": [86.9654838646102, 8.403032574929574]}}, {"type": "Feature", "properties": {"norad_id": 66537, "name": "STARLINK-35582", "group": "last-30-days", "lat": 9.691377137500446, "lon": 88.3990536578948, "alt_km": 397.309171369614, "timestamp": "2025-12-08T15:42:48.536642+00:00", "meta": {"OBJECT_NAME": "STARLINK-35582", "OBJECT_ID": "2025-265X", "EPOCH": "2025-12-08T06:00:02.999808", "MEAN_MOTION": 15.57929077, "ECCENTRICITY": 0.00013142, "INCLINATION": 43.0005, "RA_OF_ASC_NODE": 80.2297, "ARG_OF_PERICENTER": 268.9179, "MEAN_ANOMALY": 354.2691, "EPHEMERIS_TYPE": 0, "CLASSIFICATION_TYPE": "U", "NORAD_CAT_ID": 66537, "ELEMENT_SET_NO": 999, "REV_AT_EPOCH": 427, "BSTAR": -0.02953238, "MEAN_MOTION_DOT": -0.01990085, "MEAN_MOTION_DDOT": 0}, "tle": {"line1": "1 66537U 25265X   25342.25003472 -.01990085  00000+0 -29532-1 0  9991", "line2": "2 66537  43.0005  80.2297 0001314 268.9179 354.2691 15.57929077  4275"}}, "geometry": {"type": "Point", "coordinates": [88.3990536578948, 9.691377137500446]}}, {"type": "Feature", "properties": {"norad_id": 66538, "name": "STARLINK-35577", "group": "last-30-days", "lat": 10.974798977188605, "lon": 89.84531345700313, "alt_km": 397.2464968719678, "timestamp": "2025-12-08T15:42:48.536652+00:00", "meta": {"OBJECT_NAME": "STARLINK-35577", "OBJECT_ID": "2025-265Y", "EPOCH": "2025-12-08T06:00:02.999808", "MEAN_MOTION": 15.57929359, "ECCENTRICITY": 0.00013864, "INCLINATION": 43.0004, "RA_OF_ASC_NODE": 80.2247, "ARG_OF_PERICENTER": 265.8828, "MEAN_ANOMALY": 359.2242, "EPHEMERIS_TYPE": 0, "CLASSIFICATION_TYPE": "U", "NORAD_CAT_ID": 66538, "ELEMENT_SET_NO": 999, "REV_AT_EPOCH": 427, "BSTAR": -0.029579435, "MEAN_MOTION_DOT": -0.0199293, "MEAN_MOTION_DDOT": 0}, "tle": {"line1": "1 66538U 25265Y   25342.25003472 -.01992930  00000+0 -29579-1 0  9994", "line2": "2 66538  43.0004  80.2247 0001386 265.8828 359.2242 15.57929359  4276"}}, "geometry": {"type": "Point", "coordinates": [89.84531345700313, 10.974798977188605]}}, {"type": "Feature", "properties": {"norad_id": 66539, "name": "STARLINK-35697", "group": "last-30-days", "lat": 12.249493780618916, "lon": 91.30180179520019, "alt_km": 397.0015924346071, "timestamp": "2025-12-08T15:42:48.536662+00:00", "meta": {"OBJECT_NAME": "STARLINK-35697", "OBJECT_ID": "2025-265Z", "EPOCH": "2025-12-08T06:00:02.999808", "MEAN_MOTION": 15.57924906, "ECCENTRICITY": 0.00012638, "INCLINATION": 43.0006, "RA_OF_ASC_NODE": 80.2195, "ARG_OF_PERICENTER": 268.1851, "MEAN_ANOMALY": 358.8405, "EPHEMERIS_TYPE": 0, "CLASSIFICATION_TYPE": "U", "NORAD_CAT_ID": 66539, "ELEMENT_SET_NO": 999, "REV_AT_EPOCH": 427, "BSTAR": -0.029464376, "MEAN_MOTION_DOT": -0.0198576, "MEAN_MOTION_DDOT": 0}, "tle": {"line1": "1 66539U 25265Z   25342.25003472 -.01985760  00000+0 -29464-1 0  9991", "line2": "2 66539  43.0006  80.2195 0001263 268.1851 358.8405 15.57924906  4276"}}, "geometry": {"type": "Point", "coordinates": [91.30180179520019, 12.249493780618916]}}]}